start=new Date('2021-10-26T00:00:00.000Z').valueOf();
sats=[{"GP_ID":"188141620","BSTAR":"-0.00000642100000","REV_AT_EPOCH":"7612","ECCENTRICITY":"0.00016180","MEAN_MOTION":"15.06394368","PERIOD":"95.592","CLASSIFICATION_TYPE":"U","TIME_SYSTEM":"UTC","LAUNCH_DATE":"2020-06-13","MEAN_MOTION_DDOT":"0.0000000000000","REF_FRAME":"TEME","PERIAPSIS":"546.110","OBJECT_TYPE":"PAYLOAD","NORAD_CAT_ID":"45782","MEAN_ANOMALY":"283.2789","INCLINATION":"53.0542","TLE_LINE1":"1 45782U 20038BE  21298.13205542 -.00000377  00000-0 -64210-5 0  9990","RA_OF_ASC_NODE":"163.8495","OBJECT_ID":"2020-038BE","CENTER_NAME":"EARTH","EPOCH":"2021-10-25T03:10:09.588288","ELEMENT_SET_NO":"999","ARG_OF_PERICENTER":"76.8380","MEAN_ELEMENT_THEORY":"SGP4","RCS_SIZE":"LARGE","MEAN_MOTION_DOT":"-0.00000377","EPHEMERIS_TYPE":"0","APOAPSIS":"548.351","DECAY_DATE":null,"SITE":"AFETR","OBJECT_NAME":"STARLINK-1498","SEMIMAJOR_AXIS":"6925.366","TLE_LINE2":"2 45782  53.0542 163.8495 0001618  76.8380 283.2789 15.06394368 76121","COUNTRY_CODE":"US","FILE":"3183453"},{"INCLINATION":"53.0531","TLE_LINE1":"1 45783U 20038BF  21297.93669761  .00001106  00000-0  93178-4 0  9998","MEAN_ANOMALY":"283.0062","OBJECT_TYPE":"PAYLOAD","NORAD_CAT_ID":"45783","REF_FRAME":"TEME","PERIAPSIS":"546.026","CLASSIFICATION_TYPE":"U","TIME_SYSTEM":"UTC","LAUNCH_DATE":"2020-06-13","MEAN_MOTION_DDOT":"0.0000000000000","MEAN_MOTION":"15.06391620","PERIOD":"95.593","ECCENTRICITY":"0.00017520","REV_AT_EPOCH":"7609","GP_ID":"188142372","BSTAR":"0.00009317800000","EPOCH":"2021-10-24T22:28:50.673504","CENTER_NAME":"EARTH","OBJECT_ID":"2020-038BF","RA_OF_ASC_NODE":"164.7153","RCS_SIZE":"LARGE","MEAN_ELEMENT_THEORY":"SGP4","MEAN_MOTION_DOT":"0.00001106","ARG_OF_PERICENTER":"77.1123","ELEMENT_SET_NO":"999","FILE":"3183453","TLE_LINE2":"2 45783  53.0531 164.7153 0001752  77.1123 283.0062 15.06391620 76095","COUNTRY_CODE":"US","OBJECT_NAME":"STARLINK-1505","SEMIMAJOR_AXIS":"6925.374","SITE":"AFETR","DECAY_DATE":null,"EPHEMERIS_TYPE":"0","APOAPSIS":"548.453"},{"ELEMENT_SET_NO":"999","ARG_OF_PERICENTER":"77.2568","RCS_SIZE":"LARGE","MEAN_MOTION_DOT":"0.00001480","MEAN_ELEMENT_THEORY":"SGP4","SEMIMAJOR_AXIS":"6925.324","OBJECT_NAME":"STARLINK-1510","COUNTRY_CODE":"US","TLE_LINE2":"2 45784  53.0544 163.9530 0001779  77.2568 282.8619 15.06408171 76111","FILE":"3183453","EPHEMERIS_TYPE":"0","APOAPSIS":"548.421","DECAY_DATE":null,"SITE":"AFETR","LAUNCH_DATE":"2020-06-13","MEAN_MOTION_DDOT":"0.0000000000000","TIME_SYSTEM":"UTC","CLASSIFICATION_TYPE":"U","PERIAPSIS":"545.957","REF_FRAME":"TEME","NORAD_CAT_ID":"45784","OBJECT_TYPE":"PAYLOAD","MEAN_ANOMALY":"282.8619","TLE_LINE1":"1 45784U 20038BG  21298.10993779  .00001480  00000-0  11824-3 0  9990","INCLINATION":"53.0544","BSTAR":"0.00011824000000","GP_ID":"188143122","REV_AT_EPOCH":"7611","ECCENTRICITY":"0.00017790","PERIOD":"95.592","MEAN_MOTION":"15.06408171","EPOCH":"2021-10-25T02:38:18.625056","RA_OF_ASC_NODE":"163.9530","OBJECT_ID":"2020-038BG","CENTER_NAME":"EARTH"},{"MEAN_MOTION":"15.06388055","PERIOD":"95.593","ECCENTRICITY":"0.00017180","REV_AT_EPOCH":"7611","GP_ID":"188141870","BSTAR":"0.00007519500000","INCLINATION":"53.0530","TLE_LINE1":"1 45785U 20038BH  21298.09151299  .00000838  00000-0  75195-4 0  9990","MEAN_ANOMALY":"286.2739","OBJECT_TYPE":"PAYLOAD","NORAD_CAT_ID":"45785","REF_FRAME":"TEME","PERIAPSIS":"546.060","CLASSIFICATION_TYPE":"U","TIME_SYSTEM":"UTC","LAUNCH_DATE":"2020-06-13","MEAN_MOTION_DDOT":"0.0000000000000","CENTER_NAME":"EARTH","OBJECT_ID":"2020-038BH","RA_OF_ASC_NODE":"164.0343","EPOCH":"2021-10-25T02:11:46.722336","RCS_SIZE":"LARGE","MEAN_MOTION_DOT":"0.00000838","MEAN_ELEMENT_THEORY":"SGP4","ARG_OF_PERICENTER":"73.8439","ELEMENT_SET_NO":"999","SITE":"AFETR","DECAY_DATE":null,"EPHEMERIS_TYPE":"0","APOAPSIS":"548.440","FILE":"3183453","TLE_LINE2":"2 45785  53.0530 164.0343 0001718  73.8439 286.2739 15.06388055 76112","COUNTRY_CODE":"US","OBJECT_NAME":"STARLINK-1512","SEMIMAJOR_AXIS":"6925.385"},{"EPOCH":"2021-10-25T08:12:43.431840","CENTER_NAME":"EARTH","RA_OF_ASC_NODE":"162.9044","OBJECT_ID":"2020-038BJ","TLE_LINE1":"1 45786U 20038BJ  21298.34216935  .00001010  00000-0  86691-4 0  9994","INCLINATION":"53.0528","MEAN_ANOMALY":"283.4490","OBJECT_TYPE":"PAYLOAD","NORAD_CAT_ID":"45786","PERIAPSIS":"546.131","REF_FRAME":"TEME","TIME_SYSTEM":"UTC","LAUNCH_DATE":"2020-06-13","MEAN_MOTION_DDOT":"0.0000000000000","CLASSIFICATION_TYPE":"U","PERIOD":"95.592","MEAN_MOTION":"15.06395602","ECCENTRICITY":"0.00015830","REV_AT_EPOCH":"7707","BSTAR":"0.00008669100000","GP_ID":"188148149","FILE":"3183579","COUNTRY_CODE":"US","TLE_LINE2":"2 45786  53.0528 162.9044 0001583  76.6675 283.4490 15.06395602 77073","SEMIMAJOR_AXIS":"6925.362","OBJECT_NAME":"STARLINK-1513","SITE":"AFETR","DECAY_DATE":null,"APOAPSIS":"548.323","EPHEMERIS_TYPE":"0","RCS_SIZE":"LARGE","MEAN_MOTION_DOT":"0.00001010","MEAN_ELEMENT_THEORY":"SGP4","ARG_OF_PERICENTER":"76.6675","ELEMENT_SET_NO":"999"},{"BSTAR":"0.00009085900000","GP_ID":"188142872","REV_AT_EPOCH":"7610","ECCENTRICITY":"0.00016200","PERIOD":"95.593","MEAN_MOTION":"15.06392269","LAUNCH_DATE":"2020-06-13","MEAN_MOTION_DDOT":"0.0000000000000","TIME_SYSTEM":"UTC","CLASSIFICATION_TYPE":"U","PERIAPSIS":"546.115","REF_FRAME":"TEME","MEAN_ANOMALY":"285.0206","OBJECT_TYPE":"PAYLOAD","NORAD_CAT_ID":"45787","TLE_LINE1":"1 45787U 20038BK  21298.01779157  .00001072  00000-0  90859-4 0  9998","INCLINATION":"53.0543","OBJECT_ID":"2020-038BK","RA_OF_ASC_NODE":"164.3607","CENTER_NAME":"EARTH","EPOCH":"2021-10-25T00:25:37.191648","ELEMENT_SET_NO":"999","ARG_OF_PERICENTER":"75.0962","MEAN_MOTION_DOT":"0.00001072","RCS_SIZE":"LARGE","MEAN_ELEMENT_THEORY":"SGP4","APOAPSIS":"548.359","EPHEMERIS_TYPE":"0","DECAY_DATE":null,"SITE":"AFETR","SEMIMAJOR_AXIS":"6925.372","OBJECT_NAME":"STARLINK-1517","COUNTRY_CODE":"US","TLE_LINE2":"2 45787  53.0543 164.3607 0001620  75.0962 285.0206 15.06392269 76108","FILE":"3183453"},{"EPHEMERIS_TYPE":"0","APOAPSIS":"548.311","SITE":"AFETR","DECAY_DATE":null,"TLE_LINE2":"2 46027  53.0553  94.7849 0001547  85.6973 274.4192 15.06391544 68212","COUNTRY_CODE":"US","OBJECT_NAME":"STARLINK-1522","SEMIMAJOR_AXIS":"6925.374","FILE":"3183453","ELEMENT_SET_NO":"999","MEAN_MOTION_DOT":"-0.00000799","RCS_SIZE":"LARGE","MEAN_ELEMENT_THEORY":"SGP4","ARG_OF_PERICENTER":"85.6973","OBJECT_ID":"2020-055A","RA_OF_ASC_NODE":"94.7849","CENTER_NAME":"EARTH","EPOCH":"2021-10-24T22:11:35.766528","REV_AT_EPOCH":"6821","GP_ID":"188142648","BSTAR":"-0.00003472800000","PERIOD":"95.593","MEAN_MOTION":"15.06391544","ECCENTRICITY":"0.00015470","REF_FRAME":"TEME","PERIAPSIS":"546.168","CLASSIFICATION_TYPE":"U","LAUNCH_DATE":"2020-08-07","MEAN_MOTION_DDOT":"0.0000000000000","TIME_SYSTEM":"UTC","INCLINATION":"53.0553","TLE_LINE1":"1 46027U 20055A   21297.92471952 -.00000799  00000-0 -34728-4 0  9996","NORAD_CAT_ID":"46027","OBJECT_TYPE":"PAYLOAD","MEAN_ANOMALY":"274.4192"},{"EPOCH":"2021-10-25T12:52:41.010528","OBJECT_ID":"2020-055B","RA_OF_ASC_NODE":"92.0315","CENTER_NAME":"EARTH","TIME_SYSTEM":"UTC","LAUNCH_DATE":"2020-08-07","MEAN_MOTION_DDOT":"0.0000000000000","CLASSIFICATION_TYPE":"U","PERIAPSIS":"546.056","REF_FRAME":"TEME","NORAD_CAT_ID":"46028","OBJECT_TYPE":"PAYLOAD","MEAN_ANOMALY":"270.9406","TLE_LINE1":"1 46028U 20055B   21298.53658577  .00001406  00000-0  11324-3 0  9995","INCLINATION":"53.0536","BSTAR":"0.00011324000000","GP_ID":"188148223","REV_AT_EPOCH":"6780","ECCENTRICITY":"0.00016520","PERIOD":"95.592","MEAN_MOTION":"15.06404435","SEMIMAJOR_AXIS":"6925.335","OBJECT_NAME":"STARLINK-1523","COUNTRY_CODE":"US","TLE_LINE2":"2 46028  53.0536  92.0315 0001652  89.1772 270.9406 15.06404435 67803","FILE":"3183605","APOAPSIS":"548.344","EPHEMERIS_TYPE":"0","DECAY_DATE":null,"SITE":"AFETR","ELEMENT_SET_NO":"999","ARG_OF_PERICENTER":"89.1772","RCS_SIZE":"LARGE","MEAN_MOTION_DOT":"0.00001406","MEAN_ELEMENT_THEORY":"SGP4"},{"RCS_SIZE":"LARGE","MEAN_MOTION_DOT":"-0.00000736","MEAN_ELEMENT_THEORY":"SGP4","ARG_OF_PERICENTER":"94.2994","ELEMENT_SET_NO":"999","FILE":"3183453","TLE_LINE2":"2 46029  53.0551  94.7504 0001434  94.2994 265.8158 15.06398095 68229","COUNTRY_CODE":"US","OBJECT_NAME":"STARLINK-1526","SEMIMAJOR_AXIS":"6925.354","SITE":"AFETR","DECAY_DATE":null,"EPHEMERIS_TYPE":"0","APOAPSIS":"548.212","INCLINATION":"53.0551","TLE_LINE1":"1 46029U 20055C   21297.93208698 -.00000736  00000-0 -30530-4 0  9992","OBJECT_TYPE":"PAYLOAD","NORAD_CAT_ID":"46029","MEAN_ANOMALY":"265.8158","REF_FRAME":"TEME","PERIAPSIS":"546.226","CLASSIFICATION_TYPE":"U","LAUNCH_DATE":"2020-08-07","TIME_SYSTEM":"UTC","MEAN_MOTION_DDOT":"0.0000000000000","PERIOD":"95.592","MEAN_MOTION":"15.06398095","ECCENTRICITY":"0.00014340","REV_AT_EPOCH":"6822","GP_ID":"188141646","BSTAR":"-0.00003053000000","EPOCH":"2021-10-24T22:22:12.315072","CENTER_NAME":"EARTH","OBJECT_ID":"2020-055C","RA_OF_ASC_NODE":"94.7504"},{"REV_AT_EPOCH":"6818","GP_ID":"188142398","BSTAR":"0.00002577800000","MEAN_MOTION":"15.06400103","PERIOD":"95.592","ECCENTRICITY":"0.00015130","REF_FRAME":"TEME","PERIAPSIS":"546.165","CLASSIFICATION_TYPE":"U","LAUNCH_DATE":"2020-08-07","TIME_SYSTEM":"UTC","MEAN_MOTION_DDOT":"0.0000000000000","INCLINATION":"53.0532","TLE_LINE1":"1 46030U 20055D   21297.95052656  .00000102  00000-0  25778-4 0  9990","NORAD_CAT_ID":"46030","OBJECT_TYPE":"PAYLOAD","MEAN_ANOMALY":"271.9748","OBJECT_ID":"2020-055D","RA_OF_ASC_NODE":"94.6626","CENTER_NAME":"EARTH","EPOCH":"2021-10-24T22:48:45.494784","ELEMENT_SET_NO":"999","MEAN_MOTION_DOT":"0.00000102","RCS_SIZE":"LARGE","MEAN_ELEMENT_THEORY":"SGP4","ARG_OF_PERICENTER":"88.1414","EPHEMERIS_TYPE":"0","APOAPSIS":"548.261","SITE":"AFETR","DECAY_DATE":null,"TLE_LINE2":"2 46030  53.0532  94.6626 0001513  88.1414 271.9748 15.06400103 68183","COUNTRY_CODE":"US","OBJECT_NAME":"STARLINK-1534","SEMIMAJOR_AXIS":"6925.348","FILE":"3183453"}];
